NORAD_CAT_ID,OBJECT_NAME,OBJECT_TYPE,EPOCH,MEAN_MOTION,ECCENTRICITY,INCLINATION,RA_OF_ASC_NODE,ARG_OF_PERICENTER,MEAN_ANOMALY,BSTAR,MEAN_MOTION_DOT,MEAN_MOTION_DDOT,TLE_LINE0,TLE_LINE1,TLE_LINE2,SEMIMAJOR_AXIS,PERIOD,APOGEE,PERIGEE,DECAYED
53909.0,STARLINK-4796,PAYLOAD,2023-10-08 14:14:24,15.08846542,0.0001748,53.2175,318.7519,86.5085,273.6107,0.00032275,4.853e-05,0.0,0 STARLINK-4796,1 53909U 22119Z   23281.59334152  .00004853  00000-0  32275-3 0  9991,2 53909  53.2175 318.7519 0001748  86.5085 273.6107 15.08846542 58504,6917.86,95.437,540.935,538.516,0.0
53909.0,STARLINK-4796,PAYLOAD,2023-10-09 09:19:02,15.08857258,0.0001722,53.2176,315.1859,84.4667,275.6522,0.00081557,0.00012722,0.0,0 STARLINK-4796,1 53909U 22119Z   23282.38822031  .00012722  00000-0  81557-3 0  9998,2 53909  53.2176 315.1859 0001722  84.4667 275.6522 15.08857258 58204,6917.828,95.436,540.884,538.501,0.0
53909.0,STARLINK-4796,PAYLOAD,2023-10-09 14:05:11,15.08869638,0.0001781,53.2178,314.2935,81.8414,278.278,0.0010595,0.00016628,0.0,0 STARLINK-4796,1 53909U 22119Z   23282.58693683  .00016628  00000-0  10595-2 0  9991,2 53909  53.2178 314.2935 0001781  81.8414 278.2780 15.08869638 58656,6917.79,95.436,540.887,538.423,0.0
53909.0,STARLINK-4796,PAYLOAD,2023-10-10 02:48:16,15.08850558,0.0003293,53.2153,311.9138,101.2036,258.9327,9.1945e-05,1.175e-05,0.0,0 STARLINK-4796,1 53909U 22119Z   23283.11686081  .00001175  00000-0  91945-4 0  9996,2 53909  53.2153 311.9138 0003293 101.2036 258.9327 15.08850558 58311,6917.848,95.437,541.991,537.435,0.0
53909.0,STARLINK-4796,PAYLOAD,2023-10-10 12:20:35,15.08860172,0.0001691,53.2165,310.1319,95.9467,264.1717,0.0018887,0.00029915,0.0,0 STARLINK-4796,1 53909U 22119Z   23283.51429920  .00029915  00000-0  18887-2 0  9991,2 53909  53.2165 310.1319 0001691  95.9467 264.1717 15.08860172 58790,6917.819,95.436,540.854,538.514,0.0
53909.0,STARLINK-4796,PAYLOAD,2023-10-10 18:42:08,15.08840807,0.0002512,53.2173,308.9394,87.7145,272.4134,0.00078051,0.00012156,0.0,0 STARLINK-4796,1 53909U 22119Z   23283.77926481  .00012156  00000-0  78051-3 0  9992,2 53909  53.2173 308.9394 0002512  87.7145 272.4134 15.08840807 58419,6917.878,95.438,541.481,538.005,0.0
53909.0,STARLINK-4796,PAYLOAD,2023-10-11 02:39:04,15.08829473,0.0001686,53.2162,307.4553,92.7555,267.363,0.00075349,0.00011721,0.0,0 STARLINK-4796,1 53909U 22119Z   23284.11046796  .00011721  00000-0  75349-3 0  9997,2 53909  53.2162 307.4553 0001686  92.7555 267.3630 15.08829473 58465,6917.913,95.438,540.944,538.611,0.0
53909.0,STARLINK-4796,PAYLOAD,2023-10-11 12:11:23,15.08837325,0.0001707,53.2159,305.6709,89.3021,270.8167,0.0016577,0.00026191,0.0,0 STARLINK-4796,1 53909U 22119Z   23284.50791074  .00026191  00000-0  16577-2 0  9990,2 53909  53.2159 305.6709 0001707  89.3021 270.8167 15.08837325 58940,6917.889,95.438,540.934,538.573,0.0
53909.0,STARLINK-4796,PAYLOAD,2023-10-11 18:32:56,15.08833794,0.0001926,53.2164,304.4806,88.3478,271.7735,0.00086311,0.00013473,0.0,0 STARLINK-4796,1 53909U 22119Z   23284.77287366  .00013473  00000-0  86311-3 0  9996,2 53909  53.2164 304.4806 0001926  88.3478 271.7735 15.08833794 58564,6917.899,95.438,541.097,538.432,0.0
53909.0,STARLINK-4796,PAYLOAD,2023-10-12 10:26:47,15.08853316,0.0001852,53.2156,301.5071,89.5036,270.6168,0.00095335,0.00014923,0.0,0 STARLINK-4796,1 53909U 22119Z   23285.43527158  .00014923  00000-0  95335-3 0  9993,2 53909  53.2156 301.5071 0001852  89.5036 270.6168 15.08853316 59086,6917.84,95.437,540.986,538.424,0.0
53909.0,STARLINK-4796,PAYLOAD,2023-10-12 18:23:43,15.08847287,0.0001745,53.2154,300.0205,96.2191,263.9,0.00046917,7.188e-05,0.0,0 STARLINK-4796,1 53909U 22119Z   23285.76647107  .00007188  00000-0  46917-3 0  9993,2 53909  53.2154 300.0205 0001745  96.2191 263.9000 15.08847287 58714,6917.858,95.437,540.93,538.516,0.0
53909.0,STARLINK-4796,PAYLOAD,2023-10-13 00:45:15,15.08840466,0.000182,53.215,298.8303,96.9517,263.1683,0.00022978,3.371e-05,0.0,0 STARLINK-4796,1 53909U 22119Z   23286.03143274  .00003371  00000-0  22978-3 0  9991,2 53909  53.2150 298.8303 0001820  96.9517 263.1683 15.08840466 58751,6917.879,95.438,541.003,538.485,0.0
53909.0,STARLINK-4796,PAYLOAD,2023-10-13 08:42:11,15.08849263,0.0001828,53.2157,297.3444,97.5893,262.5307,0.00034803,5.257e-05,0.0,0 STARLINK-4796,1 53909U 22119Z   23286.36262933  .00005257  00000-0  34803-3 0  9996,2 53909  53.2157 297.3444 0001828  97.5893 262.5307 15.08849263 59223,6917.852,95.437,540.982,538.452,0.0
53909.0,STARLINK-4796,PAYLOAD,2023-10-13 18:14:30,15.0884655,0.0001874,53.2165,295.5593,93.7289,266.3917,0.00022752,3.335e-05,0.0,0 STARLINK-4796,1 53909U 22119Z   23286.76007059  .00003335  00000-0  22752-3 0  9991,2 53909  53.2165 295.5593 0001874  93.7289 266.3917 15.08846550 59286,6917.86,95.437,541.022,538.429,0.0
53909.0,STARLINK-4796,PAYLOAD,2023-10-14 06:57:34,15.08851763,0.0001893,53.2165,293.1805,94.6261,265.4948,0.00022134,3.237e-05,0.0,0 STARLINK-4796,1 53909U 22119Z   23287.28998646  .00003237  00000-0  22134-3 0  9995,2 53909  53.2165 293.1805 0001893  94.6261 265.4948 15.08851763 58945,6917.844,95.437,541.019,538.4,0.0
53909.0,STARLINK-4796,PAYLOAD,2023-10-14 18:05:17,15.08836686,0.000188,53.2161,291.0993,92.9699,267.1508,1.1996e-06,-2.69e-06,0.0,0 STARLINK-4796,1 53909U 22119Z   23287.75367320 -.00000269  00000-0  11996-5 0  9995,2 53909  53.2161 291.0993 0001880  92.9699 267.1508 15.08836686 59015,6917.891,95.438,541.056,538.455,0.0
53909.0,STARLINK-4796,PAYLOAD,2023-10-15 09:59:09,15.0883217,0.0001753,53.2153,288.1251,97.8463,262.2728,1.1607e-06,-2.7e-06,0.0,0 STARLINK-4796,1 53909U 22119Z   23288.41607848 -.00000270  00000-0  11607-5 0  9992,2 53909  53.2153 288.1251 0001753  97.8463 262.2728 15.08832170 59533,6917.904,95.438,540.982,538.557,0.0
53909.0,STARLINK-4796,PAYLOAD,2023-10-16 03:28:23,15.08844791,0.0001822,53.217,284.8545,97.9857,262.1342,0.00027915,4.158e-05,0.0,0 STARLINK-4796,1 53909U 22119Z   23289.14471644  .00004158  00000-0  27915-3 0  9991,2 53909  53.2170 284.8545 0001822  97.9857 262.1342 15.08844791 59225,6917.866,95.437,540.991,538.47,0.0
53909.0,STARLINK-4796,PAYLOAD,2023-10-16 06:39:09,15.08850431,0.0001628,53.2163,284.2602,95.4421,264.6756,0.00041269,6.288e-05,0.0,0 STARLINK-4796,1 53909U 22119Z   23289.27719450  .00006288  00000-0  41269-3 0  9999,2 53909  53.2163 284.2602 0001628  95.4421 264.6756 15.08850431 59661,6917.849,95.437,540.84,538.587,0.0
53909.0,STARLINK-4796,PAYLOAD,2023-10-16 22:33:00,15.08861381,0.0001611,53.2166,281.2865,95.8451,264.2725,0.00060694,9.39e-05,0.0,0 STARLINK-4796,1 53909U 22119Z   23289.93958958  .00009390  00000-0  60694-3 0  9990,2 53909  53.2166 281.2865 0001611  95.8451 264.2725 15.08861381 59344,6917.815,95.436,540.794,538.566,0.0
53909.0,STARLINK-4796,PAYLOAD,2023-10-17 16:02:15,15.08855271,0.0001045,53.2179,278.0148,97.6317,262.4794,0.00032991,4.969e-05,0.0,0 STARLINK-4796,1 53909U 22119Z   23290.66822968  .00004969  00000-0  32991-3 0  9999,2 53909  53.2179 278.0148 0001045  97.6317 262.4794 15.08855271 59457,6917.834,95.437,540.422,538.976,0.0
53909.0,STARLINK-4796,PAYLOAD,2023-10-18 03:09:57,15.08841989,0.0001947,53.2186,275.9363,107.2106,252.9099,-2.5665e-05,-6.97e-06,0.0,0 STARLINK-4796,1 53909U 22119Z   23291.13191388 -.00000697  00000-0 -25665-4 0  9994,2 53909  53.2186 275.9363 0001947 107.2106 252.9099 15.08841989 59526,6917.874,95.437,541.086,538.392,0.0
53909.0,STARLINK-4796,PAYLOAD,2023-10-18 06:20:43,15.08840753,0.0001717,53.2179,275.3405,105.4877,254.6305,-3.1148e-05,-7.84e-06,0.0,0 STARLINK-4796,1 53909U 22119Z   23291.26439420 -.00000784  00000-0 -31148-4 0  9990,2 53909  53.2179 275.3405 0001717 105.4877 254.6305 15.08840753 59964,6917.878,95.438,540.931,538.555,0.0
53909.0,STARLINK-4796,PAYLOAD,2023-10-19 04:36:07,15.08848408,0.00013,53.2163,271.1744,40.9913,319.1177,0.00015479,2.177e-05,0.0,0 STARLINK-4796,1 53909U 22119Z   23292.19175445  .00002177  00000-0  15479-3 0  9991,2 53909  53.2163 271.1744 0001300  40.9913 319.1177 15.08848408 59687,6917.855,95.437,540.619,538.82,0.0
53909.0,STARLINK-4796,PAYLOAD,2023-10-19 07:46:53,15.08852054,0.0001425,53.2171,270.5802,96.6204,263.495,0.0002916,4.357e-05,0.0,0 STARLINK-4796,1 53909U 22119Z   23292.32423084  .00004357  00000-0  29160-3 0  9995,2 53909  53.2171 270.5802 0001425  96.6204 263.4950 15.08852054 60126,6917.844,95.437,540.694,538.723,0.0
53909.0,STARLINK-4796,PAYLOAD,2023-10-19 15:43:49,15.08844795,0.0001814,53.2177,269.0919,87.2019,272.9181,0.0002143,3.125e-05,0.0,0 STARLINK-4796,1 53909U 22119Z   23292.65543528  .00003125  00000-0  21430-3 0  9991,2 53909  53.2177 269.0919 0001814  87.2019 272.9181 15.08844795 60175,6917.866,95.437,540.986,538.476,0.0
53909.0,STARLINK-4796,PAYLOAD,2023-10-20 07:37:40,15.08847864,0.0001517,53.2171,266.1213,89.9284,270.1882,0.00023525,3.459e-05,0.0,0 STARLINK-4796,1 53909U 22119Z   23293.31783541  .00003459  00000-0  23525-3 0  9993,2 53909  53.2171 266.1213 0001517  89.9284 270.1882 15.08847864 60276,6917.856,95.437,540.771,538.672,0.0
53909.0,STARLINK-4796,PAYLOAD,2023-10-20 21:56:09,15.08834065,0.0001484,53.2184,263.4411,120.6132,239.5006,-8.089e-06,-4.17e-06,0.0,0 STARLINK-4796,1 53909U 22119Z   23293.91400242 -.00000417  00000-0 -80890-5 0  9996,2 53909  53.2184 263.4411 0001484 120.6132 239.5006 15.08834065 60364,6917.899,95.438,540.79,538.737,0.0
53909.0,STARLINK-4796,PAYLOAD,2023-10-21 02:42:19,15.08839565,0.0001832,53.2174,262.5508,84.8829,275.2372,3.1172e-06,-2.39e-06,0.0,0 STARLINK-4796,1 53909U 22119Z   23294.11272238 -.00000239  00000-0  31172-5 0  9991,2 53909  53.2174 262.5508 0001832  84.8829 275.2372 15.08839565 59979,6917.882,95.438,541.014,538.479,0.0
53909.0,STARLINK-4796,PAYLOAD,2023-10-21 04:17:42,15.08839352,0.0001689,53.2172,262.2542,80.1516,279.9667,1.4448e-05,-5.8e-07,0.0,0 STARLINK-4796,1 53909U 22119Z   23294.17896279 -.00000058  00000-0  14448-4 0  9999,2 53909  53.2172 262.2542 0001689  80.1516 279.9667 15.08839352 60406,6917.882,95.438,540.916,538.579,0.0
